[{"OBJECT_NAME":"STARLINK-6345","OBJECT_ID":"2023-078Z","EPOCH":"2026-03-09T22:41:44.272320","MEAN_MOTION":14.98331684,"ECCENTRICITY":0.00030473,"INCLINATION":69.9996,"RA_OF_ASC_NODE":303.8551,"ARG_OF_PERICENTER":265.9913,"MEAN_ANOMALY":94.0898,"EPHEMERIS_TYPE":0,"CLASSIFICATION_TYPE":"U","NORAD_CAT_ID":56790,"ELEMENT_SET_NO":999,"REV_AT_EPOCH":15370,"BSTAR":-4.973511e-6,"MEAN_MOTION_DOT":-1.52e-6,"MEAN_MOTION_DDOT":0},{"OBJECT_NAME":"HAWK-10C","OBJECT_ID":"2024-149DM","EPOCH":"2026-03-09T19:12:00.010368","MEAN_MOTION":14.96177491,"ECCENTRICITY":0.0003886,"INCLINATION":97.6791,"RA_OF_ASC_NODE":145.3128,"ARG_OF_PERICENTER":47.6078,"MEAN_ANOMALY":312.5472,"EPHEMERIS_TYPE":0,"CLASSIFICATION_TYPE":"U","NORAD_CAT_ID":60575,"ELEMENT_SET_NO":999,"REV_AT_EPOCH":8512,"BSTAR":0.00025720063,"MEAN_MOTION_DOT":2.841e-5,"MEAN_MOTION_DDOT":0}]
